{"type": "FeatureCollection", "features": [ {"type": "Feature", "properties": {"norad_id": 41836, "name": "HIMAWARI-9", "group": "weather", "lat": -0.033162473927145, "lon": -42.97221864808993, "alt_km": 35779.24933363903, "timestamp": "2025-12-21T05:44:51.218881+00:00", "meta": {"OBJECT_NAME": "HIMAWARI-9", "OBJECT_ID": "2016-064A", "EPOCH": "2025-12-20T22:27:36.488736", "MEAN_MOTION": 1.00274149, "ECCENTRICITY": 0.00015165, "INCLINATION": 0.0171, "RA_OF_ASC_NODE": 9.6448, "ARG_OF_PERICENTER": 320.6837, "MEAN_ANOMALY": 237.0987, "EPHEMERIS_TYPE": 0, "CLASSIFICATION_TYPE": "U", "NORAD_CAT_ID": 41836, "ELEMENT_SET_NO": 999, "REV_AT_EPOCH": 3342, "BSTAR": 0, "MEAN_MOTION_DOT": 0, "MEAN_MOTION_DDOT": 0}, "tle": {"line1": "1 41836U 16064A   25354.93583899  .00000000  00000+0  00000+0 0  9990", "line2": "2 41836   0.0171   9.6448 0001516 320.6837 237.0987  1.00274149 33422"}}, "geometry": {"type": "Point", "coordinates": [-42.97221864808993, -0.033162473927145]}}, {"type": "Feature", "properties": {"norad_id": 41866, "name": "GOES 16", "group": "weather", "lat": -0.010064575566904354, "lon": 71.60712217923343, "alt_km": 35798.41081337483, "timestamp": "2025-12-21T05:44:51.218894+00:00", "meta": {"OBJECT_NAME": "GOES 16", "OBJECT_ID": "2016-071A", "EPOCH": "2025-12-20T16:09:21.798144", "MEAN_MOTION": 1.00272116, "ECCENTRICITY": 0.00030227, "INCLINATION": 0.075, "RA_OF_ASC_NODE": 102.2495, "ARG_OF_PERICENTER": 163.5328, "MEAN_ANOMALY": 321.3933, "EPHEMERIS_TYPE": 0, "CLASSIFICATION_TYPE": "U", "NORAD_CAT_ID": 41866, "ELEMENT_SET_NO": 999, "REV_AT_EPOCH": 3331, "BSTAR": 0, "MEAN_MOTION_DOT": -6.8e-07, "MEAN_MOTION_DDOT": 0}, "tle": {"line1": "1 41866U 16071A   25354.67316896 -.00000068  00000+0  00000+0 0  9998", "line2": "2 41866   0.0750 102.2495 0003022 163.5328 321.3933  1.00272116 33311"}}, "geometry": {"type": "Point", "coordinates": [71.60712217923343, -0.010064575566904354]}}, {"type": "Feature", "properties": {"norad_id": 41882, "name": "FENGYUN 4A", "group": "weather", "lat": -1.1684181367384456, "lon": -59.981367657938314, "alt_km": 35782.85587920283, "timestamp": "2025-12-21T05:44:51.218907+00:00", "meta": {"OBJECT_NAME": "FENGYUN 4A", "OBJECT_ID": "2016-077A", "EPOCH": "2025-12-19T13:51:06.687072", "MEAN_MOTION": 1.00266581, "ECCENTRICITY": 0.0004506, "INCLINATION": 1.866, "RA_OF_ASC_NODE": 82.3247, "ARG_OF_PERICENTER": 142.8816, "MEAN_ANOMALY": 194.7423, "EPHEMERIS_TYPE": 0, "CLASSIFICATION_TYPE": "U", "NORAD_CAT_ID": 41882, "ELEMENT_SET_NO": 999, "REV_AT_EPOCH": 3312, "BSTAR": 0, "MEAN_MOTION_DOT": -3.34e-06, "MEAN_MOTION_DDOT": 0}, "tle": {"line1": "1 41882U 16077A   25353.57716073 -.00000334  00000+0  00000+0 0  9997", "line2": "2 41882   1.8660  82.3247 0004506 142.8816 194.7423  1.00266581 33125"}}, "geometry": {"type": "Point", "coordinates": [-59.981367657938314, -1.1684181367384456]}}, {"type": "Feature", "properties": {"norad_id": 41884, "name": "CYGFM05", "group": "weather", "lat": -33.88977446143137, "lon": -82.43118097470206, "alt_km": 418.17937050525416, "timestamp": "2025-12-21T05:44:51.218919+00:00", "meta": {"OBJECT_NAME": "CYGFM05", "OBJECT_ID": "2016-078A", "EPOCH": "2025-12-20T09:57:19.872576", "MEAN_MOTION": 15.47904275, "ECCENTRICITY": 0.00107959, "INCLINATION": 34.9606, "RA_OF_ASC_NODE": 356.9859, "ARG_OF_PERICENTER": 250.6925, "MEAN_ANOMALY": 109.2629, "EPHEMERIS_TYPE": 0, "CLASSIFICATION_TYPE": "U", "NORAD_CAT_ID": 41884, "ELEMENT_SET_NO": 999, "REV_AT_EPOCH": 50095, "BSTAR": 0.00028174579, "MEAN_MOTION_DOT": 0.00015144, "MEAN_MOTION_DDOT": 0}, "tle": {"line1": "1 41884U 16078A   25354.41481334  .00015144  00000+0  28175-3 0  9994", "line2": "2 41884  34.9606 356.9859 0010795 250.6925 109.2629 15.47904275500953"}}, "geometry": {"type": "Point", "coordinates": [-82.43118097470206, -33.88977446143137]}}, {"type": "Feature", "properties": {"norad_id": 41885, "name": "CYGFM04", "group": "weather", "lat": -31.75271722841774, "lon": -151.4239895291598, "alt_km": 411.33262990698495, "timestamp": "2025-12-21T05:44:51.218931+00:00", "meta": {"OBJECT_NAME": "CYGFM04", "OBJECT_ID": "2016-078B", "EPOCH": "2025-12-20T08:36:05.783328", "MEAN_MOTION": 15.50664937, "ECCENTRICITY": 0.00097019, "INCLINATION": 34.9357, "RA_OF_ASC_NODE": 331.9095, "ARG_OF_PERICENTER": 275.107, "MEAN_ANOMALY": 84.8545, "EPHEMERIS_TYPE": 0, "CLASSIFICATION_TYPE": "U", "NORAD_CAT_ID": 41885, "ELEMENT_SET_NO": 999, "REV_AT_EPOCH": 50112, "BSTAR": 0.00030127254, "MEAN_MOTION_DOT": 0.0001786, "MEAN_MOTION_DDOT": 0}, "tle": {"line1": "1 41885U 16078B   25354.35840027  .00017860  00000+0  30127-3 0  9993", "line2": "2 41885  34.9357 331.9095 0009701 275.1070  84.8545 15.50664937501127"}}, "geometry": {"type": "Point", "coordinates": [-151.4239895291598, -31.75271722841774]}}, {"type": "Feature", "properties": {"norad_id": 41886, "name": "CYGFM02", "group": "weather", "lat": -28.81697268313175, "lon": -87.64528312803984, "alt_km": 405.0229614246027, "timestamp": "2025-12-21T05:44:51.218942+00:00", "meta": {"OBJECT_NAME": "CYGFM02", "OBJECT_ID": "2016-078C", "EPOCH": "2025-12-20T08:22:53.365728", "MEAN_MOTION": 15.52066402, "ECCENTRICITY": 0.00113856, "INCLINATION": 34.9446, "RA_OF_ASC_NODE": 330.1965, "ARG_OF_PERICENTER": 275.5269, "MEAN_ANOMALY": 84.4156, "EPHEMERIS_TYPE": 0, "CLASSIFICATION_TYPE": "U", "NORAD_CAT_ID": 41886, "ELEMENT_SET_NO": 999, "REV_AT_EPOCH": 50125, "BSTAR": 0.00030781322, "MEAN_MOTION_DOT": 0.00019209, "MEAN_MOTION_DDOT": 0}, "tle": {"line1": "1 41886U 16078C   25354.34922877  .00019209  00000+0  30781-3 0  9992", "line2": "2 41886  34.9446 330.1965 0011385 275.5269  84.4156 15.52066402501252"}}, "geometry": {"type": "Point", "coordinates": [-87.64528312803984, -28.81697268313175]}}, {"type": "Feature", "properties": {"norad_id": 41887, "name": "CYGFM01", "group": "weather", "lat": -8.288274329433385, "lon": -18.156224534764263, "alt_km": 421.56726116784284, "timestamp": "2025-12-21T05:44:51.218952+00:00", "meta": {"OBJECT_NAME": "CYGFM01", "OBJECT_ID": "2016-078D", "EPOCH": "2025-12-20T17:25:55.766496", "MEAN_MOTION": 15.48500572, "ECCENTRICITY": 0.00104885, "INCLINATION": 34.9437, "RA_OF_ASC_NODE": 357.2428, "ARG_OF_PERICENTER": 245.7557, "MEAN_ANOMALY": 114.2069, "EPHEMERIS_TYPE": 0, "CLASSIFICATION_TYPE": "U", "NORAD_CAT_ID": 41887, "ELEMENT_SET_NO": 999, "REV_AT_EPOCH": 50094, "BSTAR": 0.00026989171, "MEAN_MOTION_DOT": 0.0001481, "MEAN_MOTION_DDOT": 0}, "tle": {"line1": "1 41887U 16078D   25354.72633989  .00014810  00000+0  26989-3 0  9996", "line2": "2 41887  34.9437 357.2428 0010488 245.7557 114.2069 15.48500572500945"}}, "geometry": {"type": "Point", "coordinates": [-18.156224534764263, -8.288274329433385]}}, {"type": "Feature", "properties": {"norad_id": 41888, "name": "CYGFM08", "group": "weather", "lat": 32.8081871918231, "lon": 44.16882162760422, "alt_km": 418.8723788393918, "timestamp": "2025-12-21T05:44:51.218963+00:00", "meta": {"OBJECT_NAME": "CYGFM08", "OBJECT_ID": "2016-078E", "EPOCH": "2025-12-20T09:20:35.850048", "MEAN_MOTION": 15.49716188, "ECCENTRICITY": 0.00119728, "INCLINATION": 34.9468, "RA_OF_ASC_NODE": 342.3498, "ARG_OF_PERICENTER": 265.5444, "MEAN_ANOMALY": 94.391, "EPHEMERIS_TYPE": 0, "CLASSIFICATION_TYPE": "U", "NORAD_CAT_ID": 41888, "ELEMENT_SET_NO": 999, "REV_AT_EPOCH": 50112, "BSTAR": 0.00029221283, "MEAN_MOTION_DOT": 0.00016759, "MEAN_MOTION_DDOT": 0}, "tle": {"line1": "1 41888U 16078E   25354.38930382  .00016759  00000+0  29221-3 0  9992", "line2": "2 41888  34.9468 342.3498 0011972 265.5444  94.3910 15.49716188501123"}}, "geometry": {"type": "Point", "coordinates": [44.16882162760422, 32.8081871918231]}}, {"type": "Feature", "properties": {"norad_id": 41890, "name": "CYGFM07", "group": "weather", "lat": 33.89044149140342, "lon": 39.834224475093094, "alt_km": 415.27503661933497, "timestamp": "2025-12-21T05:44:51.218974+00:00", "meta": {"OBJECT_NAME": "CYGFM07", "OBJECT_ID": "2016-078G", "EPOCH": "2025-12-20T06:14:08.524032", "MEAN_MOTION": 15.50300971, "ECCENTRICITY": 0.0010083, "INCLINATION": 34.9485, "RA_OF_ASC_NODE": 332.1364, "ARG_OF_PERICENTER": 279.4388, "MEAN_ANOMALY": 80.5194, "EPHEMERIS_TYPE": 0, "CLASSIFICATION_TYPE": "U", "NORAD_CAT_ID": 41890, "ELEMENT_SET_NO": 999, "REV_AT_EPOCH": 50112, "BSTAR": 0.00029061, "MEAN_MOTION_DOT": 0.00017004, "MEAN_MOTION_DDOT": 0}, "tle": {"line1": "1 41890U 16078G   25354.25982088  .00017004  00000+0  29061-3 0  9997", "line2": "2 41890  34.9485 332.1364 0010083 279.4388  80.5194 15.50300971501129"}}, "geometry": {"type": "Point", "coordinates": [39.834224475093094, 33.89044149140342]}}, {"type": "Feature", "properties": {"norad_id": 41891, "name": "CYGFM03", "group": "weather", "lat": -34.909023935790884, "lon": -124.31332087001755, "alt_km": 411.6649604631275, "timestamp": "2025-12-21T05:44:51.218985+00:00", "meta": {"OBJECT_NAME": "CYGFM03", "OBJECT_ID": "2016-078H", "EPOCH": "2025-12-20T05:24:41.761440", "MEAN_MOTION": 15.50195944, "ECCENTRICITY": 0.00096748, "INCLINATION": 34.9438, "RA_OF_ASC_NODE": 334.2852, "ARG_OF_PERICENTER": 266.9271, "MEAN_ANOMALY": 93.0344, "EPHEMERIS_TYPE": 0, "CLASSIFICATION_TYPE": "U", "NORAD_CAT_ID": 41891, "ELEMENT_SET_NO": 999, "REV_AT_EPOCH": 50109, "BSTAR": 0.0002832892, "MEAN_MOTION_DOT": 0.00016509, "MEAN_MOTION_DDOT": 0}, "tle": {"line1": "1 41891U 16078H   25354.22548335  .00016509  00000+0  28329-3 0  9993", "line2": "2 41891  34.9438 334.2852 0009674 266.9271  93.0344 15.50195944501093"}}, "geometry": {"type": "Point", "coordinates": [-124.31332087001755, -34.909023935790884]}}]}